{
  "type": "FeatureCollection",
  "features": [
    {
      "type": "Feature",
      "properties": {
        "norad_id": 41599,
        "name": "CARTOSAT-2C",
        "group": "resource",
        "lat": -71.58710335186117,
        "lon": 78.60283188282781,
        "alt_km": 516.8226299788657,
        "timestamp": "2025-12-24T05:51:19.262981+00:00",
        "meta_object_name": "CARTOSAT-2C",
        "meta_object_id": "2016-040A",
        "meta_epoch": "2025-12-23T23:51:12.390624",
        "meta_mean_motion": 15.19211205,
        "meta_eccentricity": 0.00108484,
        "meta_inclination": 97.4748,
        "meta_ra_of_asc_node": 55.1271,
        "meta_arg_of_pericenter": 27.7923,
        "meta_mean_anomaly": 332.3889,
        "meta_ephemeris_type": 0,
        "meta_classification_type": "U",
        "meta_norad_cat_id": 41599,
        "meta_element_set_no": 999,
        "meta_rev_at_epoch": 52711,
        "meta_bstar": 0.0001865691,
        "meta_mean_motion_dot": 3.864e-05,
        "meta_mean_motion_ddot": 0,
        "tle_line1": "1 41599U 16040A   25357.99389341  .00003864  00000+0  18657-3 0  9997",
        "tle_line2": "2 41599  97.4748  55.1271 0010848  27.7923 332.3889 15.19211205527110"
      },
      "geometry": {
        "type": "Point",
        "coordinates": [
          78.60283188282781,
          -71.58710335186117
        ]
      }
    },
    {
      "type": "Feature",
      "properties": {
        "norad_id": 41601,
        "name": "SKYSAT-C1",
        "group": "resource",
        "lat": 0.5740636635388401,
        "lon": -145.32091097932414,
        "alt_km": 471.2010799239288,
        "timestamp": "2025-12-24T05:51:19.262991+00:00",
        "meta_object_name": "SKYSAT-C1",
        "meta_object_id": "2016-040C",
        "meta_epoch": "2025-12-23T13:24:26.934912",
        "meta_mean_motion": 15.32776934,
        "meta_eccentricity": 0.00011111,
        "meta_inclination": 96.9803,
        "meta_ra_of_asc_node": 33.962,
        "meta_arg_of_pericenter": 332.3791,
        "meta_mean_anomaly": 27.7393,
        "meta_ephemeris_type": 0,
        "meta_classification_type": "U",
        "meta_norad_cat_id": 41601,
        "meta_element_set_no": 999,
        "meta_rev_at_epoch": 53093,
        "meta_bstar": 0.00029928359,
        "meta_mean_motion_dot": 9.404e-05,
        "meta_mean_motion_ddot": 0,
        "tle_line1": "1 41601U 16040C   25357.55864508  .00009404  00000+0  29928-3 0  9995",
        "tle_line2": "2 41601  96.9803  33.9620 0001111 332.3791  27.7393 15.32776934530932"
      },
      "geometry": {
        "type": "Point",
        "coordinates": [
          -145.32091097932414,
          0.5740636635388401
        ]
      }
    },
    {
      "type": "Feature",
      "properties": {
        "norad_id": 41603,
        "name": "LAPAN-A3",
        "group": "resource",
        "lat": -79.34286886349855,
        "lon": 37.17560960792862,
        "alt_km": 472.37745840163916,
        "timestamp": "2025-12-24T05:51:19.263001+00:00",
        "meta_object_name": "LAPAN-A3",
        "meta_object_id": "2016-040E",
        "meta_epoch": "2025-12-23T23:56:27.403296",
        "meta_mean_motion": 15.3164015,
        "meta_eccentricity": 0.00087118,
        "meta_inclination": 97.1432,
        "meta_ra_of_asc_node": 355.1444,
        "meta_arg_of_pericenter": 287.2678,
        "meta_mean_anomaly": 72.7611,
        "meta_ephemeris_type": 0,
        "meta_classification_type": "U",
        "meta_norad_cat_id": 41603,
        "meta_element_set_no": 999,
        "meta_rev_at_epoch": 52798,
        "meta_bstar": 0.00015381156,
        "meta_mean_motion_dot": 4.629e-05,
        "meta_mean_motion_ddot": 0,
        "tle_line1": "1 41603U 16040E   25357.99753939  .00004629  00000+0  15381-3 0  9992",
        "tle_line2": "2 41603  97.1432 355.1444 0008711 287.2678  72.7611 15.31640150527986"
      },
      "geometry": {
        "type": "Point",
        "coordinates": [
          37.17560960792862,
          -79.34286886349855
        ]
      }
    },
    {
      "type": "Feature",
      "properties": {
        "norad_id": 41604,
        "name": "BIROS",
        "group": "resource",
        "lat": 74.12729715801878,
        "lon": 4.306339423210338,
        "alt_km": 281.70246650651916,
        "timestamp": "2025-12-24T05:51:19.263011+00:00",
        "meta_object_name": "BIROS",
        "meta_object_id": "2016-040F",
        "meta_epoch": "2025-12-23T00:54:41.222304",
        "meta_mean_motion": 15.93712142,
        "meta_eccentricity": 0.00037921,
        "meta_inclination": 97.067,
        "meta_ra_of_asc_node": 28.9133,
        "meta_arg_of_pericenter": 129.7524,
        "meta_mean_anomaly": 230.4087,
        "meta_ephemeris_type": 0,
        "meta_classification_type": "U",
        "meta_norad_cat_id": 41604,
        "meta_element_set_no": 999,
        "meta_rev_at_epoch": 53036,
        "meta_bstar": 0.00061249698,
        "meta_mean_motion_dot": 0.00219845,
        "meta_mean_motion_ddot": 2.0271061e-05,
        "tle_line1": "1 41604U 16040F   25357.03797711  .00219845  20271-4  61250-3 0  9995",
        "tle_line2": "2 41604  97.0670  28.9133 0003792 129.7524 230.4087 15.93712142530369"
      },
      "geometry": {
        "type": "Point",
        "coordinates": [
          4.306339423210338,
          74.12729715801878
        ]
      }
    },
    {
      "type": "Feature",
      "properties": {
        "norad_id": 41727,
        "name": "GAOFEN-3",
        "group": "resource",
        "lat": -39.61373823341012,
        "lon": 10.6819114931537,
        "alt_km": 757.731174571335,
        "timestamp": "2025-12-24T05:51:19.263021+00:00",
        "meta_object_name": "GAOFEN-3",
        "meta_object_id": "2016-049A",
        "meta_epoch": "2025-12-23T23:22:50.763360",
        "meta_mean_motion": 14.42215865,
        "meta_eccentricity": 0.00011241,
        "meta_inclination": 98.4033,
        "meta_ra_of_asc_node": 3.3886,
        "meta_arg_of_pericenter": 55.9372,
        "meta_mean_anomaly": 304.1925,
        "meta_ephemeris_type": 0,
        "meta_classification_type": "U",
        "meta_norad_cat_id": 41727,
        "meta_element_set_no": 999,
        "meta_rev_at_epoch": 49339,
        "meta_bstar": -3.550458e-06,
        "meta_mean_motion_dot": -5.5e-07,
        "meta_mean_motion_ddot": 0,
        "tle_line1": "1 41727U 16049A   25357.97419865 -.00000055  00000+0 -35505-5 0  9996",
        "tle_line2": "2 41727  98.4033   3.3886 0001124  55.9372 304.1925 14.42215865493397"
      },
      "geometry": {
        "type": "Point",
        "coordinates": [
          10.6819114931537,
          -39.61373823341012
        ]
      }
    },
    {
      "type": "Feature",
      "properties": {
        "norad_id": 41771,
        "name": "SKYSAT-C4",
        "group": "resource",
        "lat": 23.3494202233278,
        "lon": -154.11427019527514,
        "alt_km": 436.81191205628056,
        "timestamp": "2025-12-24T05:51:19.263044+00:00",
        "meta_object_name": "SKYSAT-C4",
        "meta_object_id": "2016-058B",
        "meta_epoch": "2025-12-23T12:03:14.856192",
        "meta_mean_motion": 15.42544852,
        "meta_eccentricity": 0.00024428,
        "meta_inclination": 96.9361,
        "meta_ra_of_asc_node": 22.1673,
        "meta_arg_of_pericenter": 125.1845,
        "meta_mean_anomaly": 234.9633,
        "meta_ephemeris_type": 0,
        "meta_classification_type": "U",
        "meta_norad_cat_id": 41771,
        "meta_element_set_no": 999,
        "meta_rev_at_epoch": 51833,
        "meta_bstar": 0.00035276823,
        "meta_mean_motion_dot": 0.00015244,
        "meta_mean_motion_ddot": 0,
        "tle_line1": "1 41771U 16058B   25357.50225528  .00015244  00000+0  35277-3 0  9993",
        "tle_line2": "2 41771  96.9361  22.1673 0002442 125.1845 234.9633 15.42544852518335"
      },
      "geometry": {
        "type": "Point",
        "coordinates": [
          -154.11427019527514,
          23.3494202233278
        ]
      }
    },
    {
      "type": "Feature",
      "properties": {
        "norad_id": 41772,
        "name": "SKYSAT-C5",
        "group": "resource",
        "lat": 82.20270834058913,
        "lon": -23.55972181644462,
        "alt_km": 458.5220388433627,
        "timestamp": "2025-12-24T05:51:19.263055+00:00",
        "meta_object_name": "SKYSAT-C5",
        "meta_object_id": "2016-058C",
        "meta_epoch": "2025-12-23T13:49:25.032288",
        "meta_mean_motion": 15.34063697,
        "meta_eccentricity": 0.00038982,
        "meta_inclination": 97.0738,
        "meta_ra_of_asc_node": 40.8744,
        "meta_arg_of_pericenter": 238.8594,
        "meta_mean_anomaly": 121.2267,
        "meta_ephemeris_type": 0,
        "meta_classification_type": "U",
        "meta_norad_cat_id": 41772,
        "meta_element_set_no": 999,
        "meta_rev_at_epoch": 51682,
        "meta_bstar": 0.00029200062,
        "meta_mean_motion_dot": 9.554e-05,
        "meta_mean_motion_ddot": 0,
        "tle_line1": "1 41772U 16058C   25357.57598417  .00009554  00000+0  29200-3 0  9997",
        "tle_line2": "2 41772  97.0738  40.8744 0003898 238.8594 121.2267 15.34063697516828"
      },
      "geometry": {
        "type": "Point",
        "coordinates": [
          -23.55972181644462,
          82.20270834058913
        ]
      }
    }
  ]
}